{"type": "FeatureCollection", "features": [ {"type": "Feature", "properties": {"norad_id": 40664, "name": "SKY MEXICO-1", "group": "intelsat", "lat": 0.002219561044879562, "lon": -172.8257171991007, "alt_km": 35788.36457040009, "timestamp": "2025-12-23T11:34:47.849474+00:00", "meta": {"OBJECT_NAME": "SKY MEXICO-1", "OBJECT_ID": "2015-026B", "EPOCH": "2025-12-23T03:25:31.045152", "MEAN_MOTION": 1.00270885, "ECCENTRICITY": 0.0002421, "INCLINATION": 0.0122, "RA_OF_ASC_NODE": 11.8669, "ARG_OF_PERICENTER": 276.6952, "MEAN_ANOMALY": 135.9924, "EPHEMERIS_TYPE": 0, "CLASSIFICATION_TYPE": "U", "NORAD_CAT_ID": 40664, "ELEMENT_SET_NO": 999, "REV_AT_EPOCH": 3868, "BSTAR": 0, "MEAN_MOTION_DOT": -2.13e-06, "MEAN_MOTION_DDOT": 0}, "tle": {"line1": "1 40664U 15026B   25357.14272043 -.00000213  00000+0  00000+0 0  9994", "line2": "2 40664   0.0122  11.8669 0002421 276.6952 135.9924  1.00270885 38683"}}, "geometry": {"type": "Point", "coordinates": [-172.8257171991007, 0.002219561044879562]}}, {"type": "Feature", "properties": {"norad_id": 40874, "name": "INTELSAT 34 (IS-34)", "group": "intelsat", "lat": -0.022724199674950592, "lon": -149.51973985643892, "alt_km": 35784.62452013773, "timestamp": "2025-12-23T11:34:47.849484+00:00", "meta": {"OBJECT_NAME": "INTELSAT 34 (IS-34)", "OBJECT_ID": "2015-039A", "EPOCH": "2025-12-23T03:37:29.753184", "MEAN_MOTION": 1.0027039, "ECCENTRICITY": 7.54e-05, "INCLINATION": 0.0165, "RA_OF_ASC_NODE": 309.1122, "ARG_OF_PERICENTER": 208.2062, "MEAN_ANOMALY": 293.5113, "EPHEMERIS_TYPE": 0, "CLASSIFICATION_TYPE": "U", "NORAD_CAT_ID": 40874, "ELEMENT_SET_NO": 999, "REV_AT_EPOCH": 3786, "BSTAR": 0, "MEAN_MOTION_DOT": -2.64e-06, "MEAN_MOTION_DDOT": 0}, "tle": {"line1": "1 40874U 15039A   25357.15103881 -.00000264  00000+0  00000+0 0  9991", "line2": "2 40874   0.0165 309.1122 0000754 208.2062 293.5113  1.00270390 37861"}}, "geometry": {"type": "Point", "coordinates": [-149.51973985643892, -0.022724199674950592]}}, {"type": "Feature", "properties": {"norad_id": 41581, "name": "INTELSAT 31 (IS-31)", "group": "intelsat", "lat": -0.011839510052067927, "lon": 170.89070683073714, "alt_km": 35781.06872319753, "timestamp": "2025-12-23T11:34:47.849494+00:00", "meta": {"OBJECT_NAME": "INTELSAT 31 (IS-31)", "OBJECT_ID": "2016-035A", "EPOCH": "2025-12-23T04:04:06.858048", "MEAN_MOTION": 1.00267678, "ECCENTRICITY": 0.0001789, "INCLINATION": 0.03, "RA_OF_ASC_NODE": 262.009, "ARG_OF_PERICENTER": 303.3765, "MEAN_ANOMALY": 212.5489, "EPHEMERIS_TYPE": 0, "CLASSIFICATION_TYPE": "U", "NORAD_CAT_ID": 41581, "ELEMENT_SET_NO": 999, "REV_AT_EPOCH": 3491, "BSTAR": 0, "MEAN_MOTION_DOT": -1.29e-06, "MEAN_MOTION_DDOT": 0}, "tle": {"line1": "1 41581U 16035A   25357.16952382 -.00000129  00000+0  00000+0 0  9993", "line2": "2 41581   0.0300 262.0090 0001789 303.3765 212.5489  1.00267678 34910"}}, "geometry": {"type": "Point", "coordinates": [170.89070683073714, -0.011839510052067927]}}, {"type": "Feature", "properties": {"norad_id": 41747, "name": "INTELSAT 36 (IS-36)", "group": "intelsat", "lat": -0.016907241412313517, "lon": -25.539019445661168, "alt_km": 35781.97057510218, "timestamp": "2025-12-23T11:34:47.849505+00:00", "meta": {"OBJECT_NAME": "INTELSAT 36 (IS-36)", "OBJECT_ID": "2016-053A", "EPOCH": "2025-12-22T13:29:30.047712", "MEAN_MOTION": 1.0027117, "ECCENTRICITY": 0.00010206, "INCLINATION": 0.0105, "RA_OF_ASC_NODE": 0.216, "ARG_OF_PERICENTER": 326.742, "MEAN_ANOMALY": 35.2784, "EPHEMERIS_TYPE": 0, "CLASSIFICATION_TYPE": "U", "NORAD_CAT_ID": 41747, "ELEMENT_SET_NO": 999, "REV_AT_EPOCH": 3417, "BSTAR": 0, "MEAN_MOTION_DOT": -3e-08, "MEAN_MOTION_DDOT": 0}, "tle": {"line1": "1 41747U 16053A   25356.56215333 -.00000003  00000+0  00000+0 0  9999", "line2": "2 41747   0.0105   0.2160 0001020 326.7420  35.2784  1.00271170 34170"}}, "geometry": {"type": "Point", "coordinates": [-25.539019445661168, -0.016907241412313517]}}, {"type": "Feature", "properties": {"norad_id": 41945, "name": "INTELSAT 32E (IS-32E)", "group": "intelsat", "lat": 0.0014198997500802074, "lon": -137.20796327612626, "alt_km": 35788.79600173204, "timestamp": "2025-12-23T11:34:47.849516+00:00", "meta": {"OBJECT_NAME": "INTELSAT 32E (IS-32E)", "OBJECT_ID": "2017-007B", "EPOCH": "2025-12-23T02:39:16.608096", "MEAN_MOTION": 1.00270451, "ECCENTRICITY": 5.51e-05, "INCLINATION": 0.0235, "RA_OF_ASC_NODE": 67.7837, "ARG_OF_PERICENTER": 327.4896, "MEAN_ANOMALY": 53.2813, "EPHEMERIS_TYPE": 0, "CLASSIFICATION_TYPE": "U", "NORAD_CAT_ID": 41945, "ELEMENT_SET_NO": 999, "REV_AT_EPOCH": 3246, "BSTAR": 0, "MEAN_MOTION_DOT": -2.48e-06, "MEAN_MOTION_DDOT": 0}, "tle": {"line1": "1 41945U 17007B   25357.11060889 -.00000248  00000+0  00000+0 0  9996", "line2": "2 41945   0.0235  67.7837 0000551 327.4896  53.2813  1.00270451 32460"}}, "geometry": {"type": "Point", "coordinates": [-137.20796327612626, 0.0014198997500802074]}}, {"type": "Feature", "properties": {"norad_id": 42818, "name": "INTELSAT 35E (IS-35E)", "group": "intelsat", "lat": -0.02826127422876888, "lon": -128.5676568832257, "alt_km": 35781.81978072802, "timestamp": "2025-12-23T11:34:47.849526+00:00", "meta": {"OBJECT_NAME": "INTELSAT 35E (IS-35E)", "OBJECT_ID": "2017-041A", "EPOCH": "2025-12-22T11:17:18.904416", "MEAN_MOTION": 1.00267679, "ECCENTRICITY": 0.00019503, "INCLINATION": 0.0219, "RA_OF_ASC_NODE": 17.0294, "ARG_OF_PERICENTER": 262.6673, "MEAN_ANOMALY": 306.4061, "EPHEMERIS_TYPE": 0, "CLASSIFICATION_TYPE": "U", "NORAD_CAT_ID": 42818, "ELEMENT_SET_NO": 999, "REV_AT_EPOCH": 3104, "BSTAR": 0, "MEAN_MOTION_DOT": 0, "MEAN_MOTION_DDOT": 0}, "tle": {"line1": "1 42818U 17041A   25356.47035769  .00000000  00000+0  00000+0 0  9996", "line2": "2 42818   0.0219  17.0294 0001950 262.6673 306.4061  1.00267679 31043"}}, "geometry": {"type": "Point", "coordinates": [-128.5676568832257, -0.02826127422876888]}}, {"type": "Feature", "properties": {"norad_id": 42950, "name": "INTELSAT 37E (IS-37E)", "group": "intelsat", "lat": -0.03795098426303697, "lon": -112.04585890350918, "alt_km": 35774.31080540851, "timestamp": "2025-12-23T11:34:47.849537+00:00", "meta": {"OBJECT_NAME": "INTELSAT 37E (IS-37E)", "OBJECT_ID": "2017-059A", "EPOCH": "2025-12-23T02:46:30.914112", "MEAN_MOTION": 1.00270162, "ECCENTRICITY": 0.0002986, "INCLINATION": 0.0204, "RA_OF_ASC_NODE": 10.7633, "ARG_OF_PERICENTER": 251.5591, "MEAN_ANOMALY": 213.217, "EPHEMERIS_TYPE": 0, "CLASSIFICATION_TYPE": "U", "NORAD_CAT_ID": 42950, "ELEMENT_SET_NO": 999, "REV_AT_EPOCH": 3030, "BSTAR": 0, "MEAN_MOTION_DOT": 0, "MEAN_MOTION_DDOT": 0}, "tle": {"line1": "1 42950U 17059A   25357.11563558  .00000000  00000+0  00000+0 0  9996", "line2": "2 42950   0.0204  10.7633 0002986 251.5591 213.2170  1.00270162 30302"}}, "geometry": {"type": "Point", "coordinates": [-112.04585890350918, -0.03795098426303697]}}, {"type": "Feature", "properties": {"norad_id": 43632, "name": "AZERSPACE 2 (IS-38)", "group": "intelsat", "lat": -0.019588593493939422, "lon": -48.9183538488528, "alt_km": 35782.449769570194, "timestamp": "2025-12-23T11:34:47.849547+00:00", "meta": {"OBJECT_NAME": "AZERSPACE 2 (IS-38)", "OBJECT_ID": "2018-074A", "EPOCH": "2025-12-22T11:40:01.728768", "MEAN_MOTION": 1.00269966, "ECCENTRICITY": 0.00012119, "INCLINATION": 0.0009, "RA_OF_ASC_NODE": 54.2649, "ARG_OF_PERICENTER": 218.3873, "MEAN_ANOMALY": 38.7587, "EPHEMERIS_TYPE": 0, "CLASSIFICATION_TYPE": "U", "NORAD_CAT_ID": 43632, "ELEMENT_SET_NO": 999, "REV_AT_EPOCH": 2667, "BSTAR": 0, "MEAN_MOTION_DOT": 1.58e-06, "MEAN_MOTION_DDOT": 0}, "tle": {"line1": "1 43632U 18074A   25356.48613112  .00000158  00000+0  00000+0 0  9997", "line2": "2 43632   0.0009  54.2649 0001211 218.3873  38.7587  1.00269966 26674"}}, "geometry": {"type": "Point", "coordinates": [-48.9183538488528, -0.019588593493939422]}}, {"type": "Feature", "properties": {"norad_id": 43633, "name": "HORIZONS-3E", "group": "intelsat", "lat": -0.009857254895337965, "lon": 74.9546975888533, "alt_km": 35787.992616925316, "timestamp": "2025-12-23T11:34:47.849557+00:00", "meta": {"OBJECT_NAME": "HORIZONS-3E", "OBJECT_ID": "2018-074B", "EPOCH": "2025-12-22T20:49:02.959104", "MEAN_MOTION": 1.00270055, "ECCENTRICITY": 5.68e-05, "INCLINATION": 0.0109, "RA_OF_ASC_NODE": 215.6812, "ARG_OF_PERICENTER": 92.5894, "MEAN_ANOMALY": 264.6459, "EPHEMERIS_TYPE": 0, "CLASSIFICATION_TYPE": "U", "NORAD_CAT_ID": 43633, "ELEMENT_SET_NO": 999, "REV_AT_EPOCH": 2657, "BSTAR": 0, "MEAN_MOTION_DOT": 0, "MEAN_MOTION_DDOT": 0}, "tle": {"line1": "1 43633U 18074B   25356.86739536  .00000000  00000+0  00000+0 0  9995", "line2": "2 43633   0.0109 215.6812 0000568  92.5894 264.6459  1.00270055 26578"}}, "geometry": {"type": "Point", "coordinates": [74.9546975888533, -0.009857254895337965]}}, {"type": "Feature", "properties": {"norad_id": 44333, "name": "AT&T T-16", "group": "intelsat", "lat": 0.029411031560164246, "lon": 165.10588688513022, "alt_km": 35783.69516934887, "timestamp": "2025-12-23T11:34:47.849568+00:00", "meta": {"OBJECT_NAME": "AT&T T-16", "OBJECT_ID": "2019-034A", "EPOCH": "2025-12-23T03:21:38.541888", "MEAN_MOTION": 1.00269221, "ECCENTRICITY": 8.46e-05, "INCLINATION": 0.0204, "RA_OF_ASC_NODE": 63.1564, "ARG_OF_PERICENTER": 72.8406, "MEAN_ANOMALY": 265.4876, "EPHEMERIS_TYPE": 0, "CLASSIFICATION_TYPE": "U", "NORAD_CAT_ID": 44333, "ELEMENT_SET_NO": 999, "REV_AT_EPOCH": 2386, "BSTAR": 0, "MEAN_MOTION_DOT": -9.4e-07, "MEAN_MOTION_DDOT": 0}, "tle": {"line1": "1 44333U 19034A   25357.14002942 -.00000094  00000+0  00000+0 0  9990", "line2": "2 44333   0.0204  63.1564 0000846  72.8406 265.4876  1.00269221 23865"}}, "geometry": {"type": "Point", "coordinates": [165.10588688513022, 0.029411031560164246]}}]}